GLOBALSTAR M035         
1 25851U 99037A   25337.16437372 -.00000015  00000+0  18293-2 0  9993
2 25851  51.9979  38.1272 0013439 253.5700 131.4484 11.04540256114939
GLOBALSTAR M032         
1 25852U 99037B   25337.06395813  .00000064  00000+0  41939-2 0  9992
2 25852  51.9930 211.9027 0013556  89.2051 271.0302 11.19074381153692
GLOBALSTAR M051         
1 25853U 99037C   25337.04152726 -.00000107  00000+0 -86349-3 0  9990
2 25853  51.9820 353.5499 0000300 149.1717 210.9111 11.42205137151683
GLOBALSTAR M030         
1 25854U 99037D   25336.65278153 -.00000053  00000+0  46612-3 0  9998
2 25854  51.9843 149.8793 0003227  12.4600 347.6296 11.55109753169510
GLOBALSTAR M048         
1 25872U 99041A   25337.18957086 -.00000067  00000+0  93572-4 0  9994
2 25872  51.9392 294.7616 0013310 114.9725 258.6804 11.33860517144150
GLOBALSTAR M026         
1 25873U 99041B   25336.76483661 -.00000009  00000+0  20434-2 0  9992
2 25873  51.9968 155.1989 0001951 150.5774 299.6944 11.06848233167157
GLOBALSTAR M043         
1 25874U 99041C   25337.14610925 -.00000076  00000+0 -23080-3 0  9997
2 25874  51.9426  49.2380 0013486 236.4232 135.8658 11.25696348141901
GLOBALSTAR M028         
1 25875U 99041D   25337.19220281 -.00000095  00000+0  36366-4 0  9997
2 25875  51.9641  49.1165 0063653  78.9159 281.8851 12.50591979211323
